NORAD_CAT_ID,OBJECT_NAME,OBJECT_TYPE,EPOCH,MEAN_MOTION,ECCENTRICITY,INCLINATION,RA_OF_ASC_NODE,ARG_OF_PERICENTER,MEAN_ANOMALY,BSTAR,MEAN_MOTION_DOT,MEAN_MOTION_DDOT,TLE_LINE0,TLE_LINE1,TLE_LINE2,SEMIMAJOR_AXIS,PERIOD,APOGEE,PERIGEE,DECAYED
53288.0,STARLINK-4162,PAYLOAD,2024-07-05 01:47:19,15.08829034,0.0001215,53.2181,54.2577,96.6652,263.4479,6.5643e-05,7.57e-06,0.0,0 STARLINK-4162,1 53288U 22086AY  24187.07452956  .00000757  00000-0  65643-4 0  9991,2 53288  53.2181  54.2577 0001215  96.6652 263.4479 15.08829034108544,6917.914,95.438,540.619,538.938,0.0
53288.0,STARLINK-4162,PAYLOAD,2024-07-05 22:27:19,15.08840208,0.0001176,53.2187,50.392,85.8795,274.2332,-2.534e-06,-3.28e-06,0.0,0 STARLINK-4162,1 53288U 22086AY  24187.93564723 -.00000328  00000-0 -25340-5 0  9999,2 53288  53.2187  50.3920 0001176  85.8795 274.2332 15.08840208108839,6917.88,95.438,540.558,538.931,0.0
53288.0,STARLINK-4162,PAYLOAD,2024-07-06 00:02:43,15.08840824,0.0001183,53.2188,50.0946,86.6635,273.4492,6.0613e-06,-1.91e-06,0.0,0 STARLINK-4162,1 53288U 22086AY  24188.00188686 -.00000191  00000-0  60613-5 0  9997,2 53288  53.2188  50.0946 0001183  86.6635 273.4492 15.08840824108680,6917.878,95.438,540.561,538.924,0.0
53288.0,STARLINK-4162,PAYLOAD,2024-07-06 07:59:36,15.0887316,0.0001225,53.2192,48.6076,127.43,232.6803,-0.00024904,-4.253e-05,0.0,0 STARLINK-4162,1 53288U 22086AY  24188.33306585 -.00004253  00000-0 -24904-3 0  9998,2 53288  53.2192  48.6076 0001225 127.4300 232.6803 15.08873160108730,6917.779,95.435,540.491,538.797,0.0
53288.0,STARLINK-4162,PAYLOAD,2024-07-06 20:42:44,15.08828337,0.0001083,53.2178,46.228,86.7476,273.364,8.5268e-05,1.069e-05,0.0,0 STARLINK-4162,1 53288U 22086AY  24188.86301506  .00001069  00000-0  85268-4 0  9995,2 53288  53.2178  46.2280 0001083  86.7476 273.3640 15.08828337108814,6917.916,95.438,540.53,539.032,0.0
53288.0,STARLINK-4162,PAYLOAD,2024-07-06 22:18:07,15.08830904,0.0001151,53.2173,45.9309,84.6187,275.4936,7.0051e-05,8.27e-06,0.0,0 STARLINK-4162,1 53288U 22086AY  24188.92925217  .00000827  00000-0  70051-4 0  9998,2 53288  53.2173  45.9309 0001151  84.6187 275.4936 15.08830904108981,6917.908,95.438,540.569,538.977,0.0
53288.0,STARLINK-4162,PAYLOAD,2024-07-06 23:53:30,15.08833259,0.0001156,53.2174,45.6333,84.6666,275.4458,0.00010283,1.349e-05,0.0,0 STARLINK-4162,1 53288U 22086AY  24188.99549149  .00001349  00000-0  10283-3 0  9991,2 53288  53.2174  45.6333 0001156  84.6666 275.4458 15.08833259108999,6917.901,95.438,540.566,538.966,0.0
53288.0,STARLINK-4162,PAYLOAD,2024-07-07 20:33:31,15.08844086,0.0001102,53.217,41.768,87.8253,272.2866,0.00016793,2.386e-05,0.0,0 STARLINK-4162,1 53288U 22086AY  24189.85660938  .00002386  00000-0  16793-3 0  9991,2 53288  53.2170  41.7680 0001102  87.8253 272.2866 15.08844086108960,6917.868,95.437,540.495,538.971,0.0
53288.0,STARLINK-4162,PAYLOAD,2024-07-08 14:02:45,15.08843593,0.0001444,53.2175,38.4965,96.5382,263.5775,0.00030182,4.519e-05,0.0,0 STARLINK-4162,1 53288U 22086AY  24190.58525090  .00004519  00000-0  30182-3 0  9990,2 53288  53.2175  38.4965 0001444  96.5382 263.5775 15.08843593109238,6917.869,95.437,540.733,538.735,0.0
53288.0,STARLINK-4162,PAYLOAD,2024-07-08 20:24:18,15.0884108,0.0001352,53.2187,37.3079,91.4608,268.6539,0.00013437,1.851e-05,0.0,0 STARLINK-4162,1 53288U 22086AY  24190.85021186  .00001851  00000-0  13437-3 0  9997,2 53288  53.2187  37.3079 0001352  91.4608 268.6539 15.08841080109118,6917.877,95.437,540.677,538.807,0.0
53288.0,STARLINK-4162,PAYLOAD,2024-07-08 23:35:04,15.08843834,0.0001242,53.2176,36.7125,88.8417,271.2717,0.00018032,2.583e-05,0.0,0 STARLINK-4162,1 53288U 22086AY  24190.98269005  .00002583  00000-0  18032-3 0  9994,2 53288  53.2176  36.7125 0001242  88.8417 271.2717 15.08843834109293,6917.869,95.437,540.593,538.874,0.0
53288.0,STARLINK-4162,PAYLOAD,2024-07-09 18:39:42,15.08840224,0.0001212,53.2181,33.144,90.5717,269.5414,-3.35e-06,-3.41e-06,0.0,0 STARLINK-4162,1 53288U 22086AY  24191.77757173 -.00000341  00000-0 -33500-5 0  9991,2 53288  53.2181  33.1440 0001212  90.5717 269.5414 15.08840224109418,6917.88,95.438,540.583,538.906,0.0
53288.0,STARLINK-4162,PAYLOAD,2024-07-10 13:44:20,15.0883739,0.0001145,53.2175,29.5768,94.3753,265.737,0.00010501,1.384e-05,0.0,0 STARLINK-4162,1 53288U 22086AY  24192.57245401  .00001384  00000-0  10501-3 0  9996,2 53288  53.2175  29.5768 0001145  94.3753 265.7370 15.08837390109532,6917.888,95.438,540.545,538.961,0.0
53288.0,STARLINK-4162,PAYLOAD,2024-07-10 20:05:52,15.08838621,0.0001139,53.2174,28.384,86.4251,273.6872,4.7756e-05,4.72e-06,0.0,0 STARLINK-4162,1 53288U 22086AY  24192.83741396  .00000472  00000-0  47756-4 0  9999,2 53288  53.2174  28.3840 0001139  86.4251 273.6872 15.08838621109417,6917.885,95.438,540.538,538.962,0.0
53288.0,STARLINK-4162,PAYLOAD,2024-07-11 13:35:07,15.08838226,0.0001238,53.2177,25.1152,106.2728,253.84,0.00011651,1.567e-05,0.0,0 STARLINK-4162,1 53288U 22086AY  24193.56605466  .00001567  00000-0  11651-3 0  9997,2 53288  53.2177  25.1152 0001238 106.2728 253.8400 15.08838226109688,6917.886,95.438,540.607,538.894,0.0
53288.0,STARLINK-4162,PAYLOAD,2024-07-12 05:28:58,15.08848911,0.0001106,53.2181,22.1424,91.8742,268.2377,0.00022489,3.294e-05,0.0,0 STARLINK-4162,1 53288U 22086AY  24194.22844990  .00003294  00000-0  22489-3 0  9998,2 53288  53.2181  22.1424 0001106  91.8742 268.2377 15.08848911109620,6917.853,95.437,540.483,538.953,0.0
53288.0,STARLINK-4162,PAYLOAD,2024-07-12 18:12:03,15.08834323,0.0001185,53.2175,19.7638,84.6488,275.4639,6.3122e-06,-1.87e-06,0.0,0 STARLINK-4162,1 53288U 22086AY  24194.75837904 -.00000187  00000-0  63122-5 0  9993,2 53288  53.2175  19.7638 0001185  84.6488 275.4639 15.08834323109708,6917.898,95.438,540.583,538.943,0.0
53288.0,STARLINK-4162,PAYLOAD,2024-07-12 21:22:50,15.08838643,0.000141,53.2191,19.1685,90.6412,269.4742,7.5313e-05,9.11e-06,0.0,0 STARLINK-4162,1 53288U 22086AY  24194.89085752  .00000911  00000-0  75313-4 0  9992,2 53288  53.2191  19.1685 0001410  90.6412 269.4742 15.08838643109883,6917.885,95.438,540.725,538.774,0.0
53288.0,STARLINK-4162,PAYLOAD,2024-07-13 11:41:18,15.08827115,9.07e-05,53.2192,16.4929,95.7531,264.3565,-8.2677e-05,-1.603e-05,0.0,0 STARLINK-4162,1 53288U 22086AY  24195.48702273 -.00001603  00000-0 -82677-4 0  9994,2 53288  53.2192  16.4929 0000907  95.7531 264.3565 15.08827115109972,6917.92,95.438,540.412,539.157,0.0
53288.0,STARLINK-4162,PAYLOAD,2024-07-13 19:38:14,15.08841957,0.0001275,53.219,15.0068,91.1281,268.9857,0.00014896,2.084e-05,0.0,0 STARLINK-4162,1 53288U 22086AY  24195.81821779  .00002084  00000-0  14896-3 0  9993,2 53288  53.2190  15.0068 0001275  91.1281 268.9857 15.08841957109862,6917.874,95.437,540.621,538.857,0.0
53288.0,STARLINK-4162,PAYLOAD,2024-07-13 21:13:37,15.08842402,0.0001239,53.2182,14.709,89.5617,270.5517,0.00017799,2.546e-05,0.0,0 STARLINK-4162,1 53288U 22086AY  24195.88445706  .00002546  00000-0  17799-3 0  9990,2 53288  53.2182  14.7090 0001239  89.5617 270.5517 15.08842402110037,6917.873,95.437,540.595,538.881,0.0
53288.0,STARLINK-4162,PAYLOAD,2024-07-14 11:32:05,15.08849098,0.0001793,53.2157,12.0344,78.5637,281.5556,0.0003645,5.519e-05,0.0,0 STARLINK-4162,1 53288U 22086AY  24196.48061630  .00005519  00000-0  36450-3 0  9995,2 53288  53.2157  12.0344 0001793  78.5637 281.5556 15.08849098110120,6917.853,95.437,540.958,538.477,0.0
53288.0,STARLINK-4162,PAYLOAD,2024-07-14 19:29:00,15.08846902,0.0001116,53.2161,10.5466,79.2064,280.9054,0.00019876,2.877e-05,0.0,0 STARLINK-4162,1 53288U 22086AY  24196.81181462  .00002877  00000-0  19876-3 0  9995,2 53288  53.2161  10.5466 0001116  79.2064 280.9054 15.08846902110176,6917.859,95.437,540.496,538.952,0.0
53288.0,STARLINK-4162,PAYLOAD,2024-07-15 05:01:19,15.08857175,0.0001115,53.2164,8.7622,78.0529,282.0588,0.0003939,5.99e-05,0.0,0 STARLINK-4162,1 53288U 22086AY  24197.20924972  .00005990  00000-0  39390-3 0  9992,2 53288  53.2164   8.7622 0001115  78.0529 282.0588 15.08857175110072,6917.828,95.436,540.464,538.922,0.0
53288.0,STARLINK-4162,PAYLOAD,2024-07-15 17:44:24,15.08839127,0.0001335,53.2185,6.3804,95.9438,264.1706,6.6127e-05,7.65e-06,0.0,0 STARLINK-4162,1 53288U 22086AY  24197.73917783  .00000765  00000-0  66127-4 0  9996,2 53288  53.2185   6.3804 0001335  95.9438 264.1706 15.08839127110151,6917.883,95.438,540.672,538.825,0.0
53288.0,STARLINK-4162,PAYLOAD,2024-07-16 14:24:25,15.08845005,0.0001631,53.2191,2.5155,110.2916,249.8252,0.00056029,8.641e-05,0.0,0 STARLINK-4162,1 53288U 22086AY  24198.60029837  .00008641  00000-0  56029-3 0  9997,2 53288  53.2191   2.5155 0001631 110.2916 249.8252 15.08845005110446,6917.865,95.437,540.858,538.602,0.0
53288.0,STARLINK-4162,PAYLOAD,2024-07-16 17:35:12,15.08843296,0.0001487,53.2191,1.9226,101.5551,258.5608,0.00027296,4.059e-05,0.0,0 STARLINK-4162,1 53288U 22086AY  24198.73277829  .00004059  00000-0  27296-3 0  9990,2 53288  53.2191   1.9226 0001487 101.5551 258.5608 15.08843296110469,6917.87,95.437,540.764,538.707,0.0
53288.0,STARLINK-4162,PAYLOAD,2024-07-17 14:15:12,15.08841878,0.0001427,53.2187,358.0568,107.0268,253.088,0.00021212,3.09e-05,0.0,0 STARLINK-4162,1 53288U 22086AY  24199.59389940  .00003090  00000-0  21212-3 0  9999,2 53288  53.2187 358.0568 0001427 107.0268 253.0880 15.08841878110599,6917.875,95.437,540.727,538.752,0.0
53288.0,STARLINK-4162,PAYLOAD,2024-07-17 17:25:59,15.08836849,0.0001346,53.2188,357.4618,109.1735,250.9403,7.89e-06,-1.62e-06,0.0,0 STARLINK-4162,1 53288U 22086AY  24199.72638082 -.00000162  00000-0  78900-5 0  9994,2 53288  53.2188 357.4618 0001346 109.1735 250.9403 15.08836849110455,6917.89,95.438,540.686,538.824,0.0
53288.0,STARLINK-4162,PAYLOAD,2024-07-18 14:06:00,15.0883708,0.0001276,53.2183,353.5948,110.8903,249.2226,0.0002074,3.014e-05,0.0,0 STARLINK-4162,1 53288U 22086AY  24200.58750283  .00003014  00000-0  20740-3 0  9994,2 53288  53.2183 353.5948 0001276 110.8903 249.2226 15.08837080110745,6917.889,95.438,540.637,538.872,0.0
